ONEWEB-0340             
1 49206U 21083W   22230.42776696  .00000007  00000+0 -14799-4 0  9992
2 49206  87.9093 253.3529 0001840  89.3843 270.7500 13.18685573 46914
ONEWEB-0341             
1 49207U 21083X   22230.51139129  .00000032  00000+0  49035-4 0  9995
2 49207  87.9113 253.2633 0002043  58.4283 301.7048 13.18687188 46943
ONEWEB-0342             
1 49208U 21083Y   22230.91667824  .00028835  00000+0  29549-2 0  9995
2 49208  87.2079 208.3488 0004703 110.4303  78.5403 14.90332991 51742
ONEWEB-0343             
1 49209U 21083Z   22230.43240498  .00000065  00000+0  13176-3 0  9992
2 49209  87.9104 253.3188 0002600  59.7707 300.3682 13.18687199 45697
ONEWEB-0344             
1 49210U 21083AA  22230.47127730  .00000305  00000+0  80110-3 0  9990
2 49210  87.8940 238.0845 0001933  88.0130 272.1221 13.13469821 47286
ONEWEB-0345             
1 49211U 21083AB  22230.71773548  .00000129  00000+0  31926-3 0  9997
2 49211  87.8929 238.0250 0001287  74.1056 286.0215 13.13470700 47329
ONEWEB-0346             
1 49212U 21083AC  22230.51448195  .00000043  00000+0  77352-4 0  9992
2 49212  87.9102 253.2939 0001437  99.9982 260.1313 13.18689372 46937
ONEWEB-0348             
1 49213U 21083AD  22230.91667824  .00027066  00000+0  27743-2 0  9990
2 49213  87.2105 208.4559 0005070 101.9377  42.6676 14.90330068 51749
ONEWEB-0350             
1 49214U 21083AE  22230.42197906 -.00000097  00000+0 -30040-3 0  9998
2 49214  87.8937 238.1066 0001548  80.9621 279.1683 13.13470750 47316
ONEWEB-0351             
1 49215U 21083AF  22230.91667824  .00028307  00000+0  29023-2 0  9994
2 49215  87.2035 208.1714 0005027  93.1928 172.7708 14.90313434 51759
ONEWEB-0352             
1 49216U 21083AG  22231.08969021 -.00000559  00000+0 -15664-2 0  9995
2 49216  87.8941 237.9570 0001907  68.6205 291.5127 13.13464843 48790
ONEWEB-0354             
1 49217U 21083AH  22230.91667824  .00027834  00000+0  28533-2 0  9995
2 49217  87.2089 208.3787 0004120  99.6267  62.5793 14.90326233 51764
ONEWEB-0355             
1 49218U 21083AJ  22230.43541207 -.00000253  00000+0 -72793-3 0  9995
2 49218  87.8943 238.0909 0002144  78.6027 281.5342 13.13473082 47285
ONEWEB-0357             
1 49219U 21083AK  22230.91667824  .00024587  00000+0  25205-2 0  9992
2 49219  87.2086 208.3689 0005196 112.5451 349.7479 14.90334732 51739
ONEWEB-0332             
1 49279U 21090A   22230.91667824  .00018664  00000+0  50208-1 0  9995
2 49279  87.9073 207.6491 0002743  83.6564 181.3438 13.14497803 43874
ONEWEB-0347             
1 49280U 21090B   22230.91667824  .00004813  00000+0  17995-2 0  9995
2 49280  87.6959 200.1317 0001446   4.4694 135.4666 14.31675269 45177
ONEWEB-0349             
1 49281U 21090C   22230.91667824 -.00008088  00000+0 -19941-1 0  9998
2 49281  87.9335 192.6202 0001642  73.8399 298.6874 13.20777231 46541
