[{"OBJECT_NAME":"ONEWEB-0340","OBJECT_ID":"2021-083W","EPOCH":"2022-08-18T10:15:59.065344","MEAN_MOTION":13.18685573,"ECCENTRICITY":0.000184,"INCLINATION":87.9093,"RA_OF_ASC_NODE":253.3529,"ARG_OF_PERICENTER":89.3843,"MEAN_ANOMALY":270.75,"EPHEMERIS_TYPE":0,"CLASSIFICATION_TYPE":"U","NORAD_CAT_ID":49206,"ELEMENT_SET_NO":999,"REV_AT_EPOCH":4691,"BSTAR":-1.4799e-5,"MEAN_MOTION_DOT":7.0e-8,"MEAN_MOTION_DDOT":0},{"OBJECT_NAME":"ONEWEB-0341","OBJECT_ID":"2021-083X","EPOCH":"2022-08-18T12:16:24.207456","MEAN_MOTION":13.18687188,"ECCENTRICITY":0.0002043,"INCLINATION":87.9113,"RA_OF_ASC_NODE":253.2633,"ARG_OF_PERICENTER":58.4283,"MEAN_ANOMALY":301.7048,"EPHEMERIS_TYPE":0,"CLASSIFICATION_TYPE":"U","NORAD_CAT_ID":49207,"ELEMENT_SET_NO":999,"REV_AT_EPOCH":4694,"BSTAR":4.9035e-5,"MEAN_MOTION_DOT":3.2e-7,"MEAN_MOTION_DDOT":0},{"OBJECT_NAME":"ONEWEB-0342","OBJECT_ID":"2021-083Y","EPOCH":"2022-08-18T22:00:00.999936","MEAN_MOTION":14.90332991,"ECCENTRICITY":0.0004703,"INCLINATION":87.2079,"RA_OF_ASC_NODE":208.3488,"ARG_OF_PERICENTER":110.4303,"MEAN_ANOMALY":78.5403,"EPHEMERIS_TYPE":0,"CLASSIFICATION_TYPE":"U","NORAD_CAT_ID":49208,"ELEMENT_SET_NO":999,"REV_AT_EPOCH":5174,"BSTAR":0.0029549,"MEAN_MOTION_DOT":0.00028835,"MEAN_MOTION_DDOT":0},{"OBJECT_NAME":"ONEWEB-0343","OBJECT_ID":"2021-083Z","EPOCH":"2022-08-18T10:22:39.790272","MEAN_MOTION":13.18687199,"ECCENTRICITY":0.00026,"INCLINATION":87.9104,"RA_OF_ASC_NODE":253.3188,"ARG_OF_PERICENTER":59.7707,"MEAN_ANOMALY":300.3682,"EPHEMERIS_TYPE":0,"CLASSIFICATION_TYPE":"U","NORAD_CAT_ID":49209,"ELEMENT_SET_NO":999,"REV_AT_EPOCH":4569,"BSTAR":0.00013176,"MEAN_MOTION_DOT":6.5e-7,"MEAN_MOTION_DDOT":0},{"OBJECT_NAME":"ONEWEB-0344","OBJECT_ID":"2021-083AA","EPOCH":"2022-08-18T11:18:38.358720","MEAN_MOTION":13.13469821,"ECCENTRICITY":0.0001933,"INCLINATION":87.894,"RA_OF_ASC_NODE":238.0845,"ARG_OF_PERICENTER":88.013,"MEAN_ANOMALY":272.1221,"EPHEMERIS_TYPE":0,"CLASSIFICATION_TYPE":"U","NORAD_CAT_ID":49210,"ELEMENT_SET_NO":999,"REV_AT_EPOCH":4728,"BSTAR":0.0008011,"MEAN_MOTION_DOT":3.05e-6,"MEAN_MOTION_DDOT":0},{"OBJECT_NAME":"ONEWEB-0345","OBJECT_ID":"2021-083AB","EPOCH":"2022-08-18T17:13:32.345472","MEAN_MOTION":13.134707,"ECCENTRICITY":0.0001287,"INCLINATION":87.8929,"RA_OF_ASC_NODE":238.025,"ARG_OF_PERICENTER":74.1056,"MEAN_ANOMALY":286.0215,"EPHEMERIS_TYPE":0,"CLASSIFICATION_TYPE":"U","NORAD_CAT_ID":49211,"ELEMENT_SET_NO":999,"REV_AT_EPOCH":4732,"BSTAR":0.00031926,"MEAN_MOTION_DOT":1.29e-6,"MEAN_MOTION_DDOT":0},{"OBJECT_NAME":"ONEWEB-0346","OBJECT_ID":"2021-083AC","EPOCH":"2022-08-18T12:20:51.240480","MEAN_MOTION":13.18689372,"ECCENTRICITY":0.0001437,"INCLINATION":87.9102,"RA_OF_ASC_NODE":253.2939,"ARG_OF_PERICENTER":99.9982,"MEAN_ANOMALY":260.1313,"EPHEMERIS_TYPE":0,"CLASSIFICATION_TYPE":"U","NORAD_CAT_ID":49212,"ELEMENT_SET_NO":999,"REV_AT_EPOCH":4693,"BSTAR":7.7352e-5,"MEAN_MOTION_DOT":4.3e-7,"MEAN_MOTION_DDOT":0},{"OBJECT_NAME":"ONEWEB-0348","OBJECT_ID":"2021-083AD","EPOCH":"2022-08-18T22:00:00.999936","MEAN_MOTION":14.90330068,"ECCENTRICITY":0.000507,"INCLINATION":87.2105,"RA_OF_ASC_NODE":208.4559,"ARG_OF_PERICENTER":101.9377,"MEAN_ANOMALY":42.6676,"EPHEMERIS_TYPE":0,"CLASSIFICATION_TYPE":"U","NORAD_CAT_ID":49213,"ELEMENT_SET_NO":999,"REV_AT_EPOCH":5174,"BSTAR":0.0027743,"MEAN_MOTION_DOT":0.00027066,"MEAN_MOTION_DDOT":0},{"OBJECT_NAME":"ONEWEB-0350","OBJECT_ID":"2021-083AE","EPOCH":"2022-08-18T10:07:38.990784","MEAN_MOTION":13.1347075,"ECCENTRICITY":0.0001548,"INCLINATION":87.8937,"RA_OF_ASC_NODE":238.1066,"ARG_OF_PERICENTER":80.9621,"MEAN_ANOMALY":279.1683,"EPHEMERIS_TYPE":0,"CLASSIFICATION_TYPE":"U","NORAD_CAT_ID":49214,"ELEMENT_SET_NO":999,"REV_AT_EPOCH":4731,"BSTAR":-0.0003004,"MEAN_MOTION_DOT":-9.7e-7,"MEAN_MOTION_DDOT":0},{"OBJECT_NAME":"ONEWEB-0351","OBJECT_ID":"2021-083AF","EPOCH":"2022-08-18T22:00:00.999936","MEAN_MOTION":14.90313434,"ECCENTRICITY":0.0005027,"INCLINATION":87.2035,"RA_OF_ASC_NODE":208.1714,"ARG_OF_PERICENTER":93.1928,"MEAN_ANOMALY":172.7708,"EPHEMERIS_TYPE":0,"CLASSIFICATION_TYPE":"U","NORAD_CAT_ID":49215,"ELEMENT_SET_NO":999,"REV_AT_EPOCH":5175,"BSTAR":0.0029023,"MEAN_MOTION_DOT":0.00028307,"MEAN_MOTION_DDOT":0},{"OBJECT_NAME":"ONEWEB-0352","OBJECT_ID":"2021-083AG","EPOCH":"2022-08-19T02:09:09.234144","MEAN_MOTION":13.13464843,"ECCENTRICITY":0.0001907,"INCLINATION":87.8941,"RA_OF_ASC_NODE":237.957,"ARG_OF_PERICENTER":68.6205,"MEAN_ANOMALY":291.5127,"EPHEMERIS_TYPE":0,"CLASSIFICATION_TYPE":"U","NORAD_CAT_ID":49216,"ELEMENT_SET_NO":999,"REV_AT_EPOCH":4879,"BSTAR":-0.0015664,"MEAN_MOTION_DOT":-5.59e-6,"MEAN_MOTION_DDOT":0},{"OBJECT_NAME":"ONEWEB-0354","OBJECT_ID":"2021-083AH","EPOCH":"2022-08-18T22:00:00.999936","MEAN_MOTION":14.90326233,"ECCENTRICITY":0.000412,"INCLINATION":87.2089,"RA_OF_ASC_NODE":208.3787,"ARG_OF_PERICENTER":99.6267,"MEAN_ANOMALY":62.5793,"EPHEMERIS_TYPE":0,"CLASSIFICATION_TYPE":"U","NORAD_CAT_ID":49217,"ELEMENT_SET_NO":999,"REV_AT_EPOCH":5176,"BSTAR":0.0028533,"MEAN_MOTION_DOT":0.00027834,"MEAN_MOTION_DDOT":0},{"OBJECT_NAME":"ONEWEB-0355","OBJECT_ID":"2021-083AJ","EPOCH":"2022-08-18T10:26:59.602848","MEAN_MOTION":13.13473082,"ECCENTRICITY":0.0002144,"INCLINATION":87.8943,"RA_OF_ASC_NODE":238.0909,"ARG_OF_PERICENTER":78.6027,"MEAN_ANOMALY":281.5342,"EPHEMERIS_TYPE":0,"CLASSIFICATION_TYPE":"U","NORAD_CAT_ID":49218,"ELEMENT_SET_NO":999,"REV_AT_EPOCH":4728,"BSTAR":-0.00072793,"MEAN_MOTION_DOT":-2.53e-6,"MEAN_MOTION_DDOT":0},{"OBJECT_NAME":"ONEWEB-0357","OBJECT_ID":"2021-083AK","EPOCH":"2022-08-18T22:00:00.999936","MEAN_MOTION":14.90334732,"ECCENTRICITY":0.0005196,"INCLINATION":87.2086,"RA_OF_ASC_NODE":208.3689,"ARG_OF_PERICENTER":112.5451,"MEAN_ANOMALY":349.7479,"EPHEMERIS_TYPE":0,"CLASSIFICATION_TYPE":"U","NORAD_CAT_ID":49219,"ELEMENT_SET_NO":999,"REV_AT_EPOCH":5173,"BSTAR":0.0025205,"MEAN_MOTION_DOT":0.00024587,"MEAN_MOTION_DDOT":0},{"OBJECT_NAME":"ONEWEB-0332","OBJECT_ID":"2021-090A","EPOCH":"2022-08-18T22:00:00.999936","MEAN_MOTION":13.14497803,"ECCENTRICITY":0.0002743,"INCLINATION":87.9073,"RA_OF_ASC_NODE":207.6491,"ARG_OF_PERICENTER":83.6564,"MEAN_ANOMALY":181.3438,"EPHEMERIS_TYPE":0,"CLASSIFICATION_TYPE":"U","NORAD_CAT_ID":49279,"ELEMENT_SET_NO":999,"REV_AT_EPOCH":4387,"BSTAR":0.050208,"MEAN_MOTION_DOT":0.00018664,"MEAN_MOTION_DDOT":0},{"OBJECT_NAME":"ONEWEB-0347","OBJECT_ID":"2021-090B","EPOCH":"2022-08-18T22:00:00.999936","MEAN_MOTION":14.31675269,"ECCENTRICITY":0.0001446,"INCLINATION":87.6959,"RA_OF_ASC_NODE":200.1317,"ARG_OF_PERICENTER":4.4694,"MEAN_ANOMALY":135.4666,"EPHEMERIS_TYPE":0,"CLASSIFICATION_TYPE":"U","NORAD_CAT_ID":49280,"ELEMENT_SET_NO":999,"REV_AT_EPOCH":4517,"BSTAR":0.0017995,"MEAN_MOTION_DOT":4.813e-5,"MEAN_MOTION_DDOT":0},{"OBJECT_NAME":"ONEWEB-0349","OBJECT_ID":"2021-090C","EPOCH":"2022-08-18T22:00:00.999936","MEAN_MOTION":13.20777231,"ECCENTRICITY":0.0001642,"INCLINATION":87.9335,"RA_OF_ASC_NODE":192.6202,"ARG_OF_PERICENTER":73.8399,"MEAN_ANOMALY":298.6874,"EPHEMERIS_TYPE":0,"CLASSIFICATION_TYPE":"U","NORAD_CAT_ID":49281,"ELEMENT_SET_NO":999,"REV_AT_EPOCH":4654,"BSTAR":-0.019941,"MEAN_MOTION_DOT":-8.088e-5,"MEAN_MOTION_DDOT":0}]